[{"OBJECT_NAME":"IRIDIUM 178","OBJECT_ID":"2023-068V","EPOCH":"2026-03-09T22:29:43.646208","MEAN_MOTION":14.80237854,"ECCENTRICITY":0.00024806,"INCLINATION":86.6486,"RA_OF_ASC_NODE":66.834,"ARG_OF_PERICENTER":100.7522,"MEAN_ANOMALY":259.3979,"EPHEMERIS_TYPE":0,"CLASSIFICATION_TYPE":"U","NORAD_CAT_ID":56729,"ELEMENT_SET_NO":999,"REV_AT_EPOCH":15168,"BSTAR":8.8663606e-5,"MEAN_MOTION_DOT":7.0e-6,"MEAN_MOTION_DDOT":0},{"OBJECT_NAME":"FENGYUN 1C DEB","OBJECT_ID":"1999-025BFP","EPOCH":"2026-03-03T16:36:30.506400","MEAN_MOTION":14.57818689,"ECCENTRICITY":0.01030673,"INCLINATION":99.1064,"RA_OF_ASC_NODE":235.5112,"ARG_OF_PERICENTER":192.0771,"MEAN_ANOMALY":167.7953,"EPHEMERIS_TYPE":0,"CLASSIFICATION_TYPE":"U","NORAD_CAT_ID":31069,"ELEMENT_SET_NO":999,"REV_AT_EPOCH":99865,"BSTAR":0.0013815638,"MEAN_MOTION_DOT":6.747e-5,"MEAN_MOTION_DDOT":0}]
